CCSDS_OMM_VERS = 2.0
CREATION_DATE  = 
ORIGINATOR     = 

OBJECT_NAME    = ATLAS CENTAUR 2
OBJECT_ID      = 1963-047A
CENTER_NAME    = EARTH
REF_FRAME      = TEME
TIME_SYSTEM    = UTC
MEAN_ELEMENT_THEORY = SGP/SGP4

EPOCH          = 2025-10-28T11:04:45.214752
MEAN_MOTION    = 14.11318948
ECCENTRICITY   = .05503522
INCLINATION    = 30.3541
RA_OF_ASC_NODE = 214.2879
ARG_OF_PERICENTER = 355.4421
MEAN_ANOMALY   = 4.1310

EPHEMERIS_TYPE = 0
CLASSIFICATION_TYPE = U
NORAD_CAT_ID   = 694
ELEMENT_SET_NO = 999
REV_AT_EPOCH   = 11292
BSTAR          = .57373307E-3
MEAN_MOTION_DOT = .4732E-4
MEAN_MOTION_DDOT = 0

CCSDS_OMM_VERS = 2.0
CREATION_DATE  = 
ORIGINATOR     = 

OBJECT_NAME    = THOR AGENA D R/B
OBJECT_ID      = 1964-002A
CENTER_NAME    = EARTH
REF_FRAME      = TEME
TIME_SYSTEM    = UTC
MEAN_ELEMENT_THEORY = SGP/SGP4

EPOCH          = 2025-10-28T12:09:31.090176
MEAN_MOTION    = 14.33919756
ECCENTRICITY   = .00319596
INCLINATION    = 99.1225
RA_OF_ASC_NODE = 302.6768
ARG_OF_PERICENTER = 283.8775
MEAN_ANOMALY   = 75.8853

EPHEMERIS_TYPE = 0
CLASSIFICATION_TYPE = U
NORAD_CAT_ID   = 733
ELEMENT_SET_NO = 999
REV_AT_EPOCH   = 21935
BSTAR          = .16046393E-3
MEAN_MOTION_DOT = .401E-5
MEAN_MOTION_DDOT = 0

CCSDS_OMM_VERS = 2.0
CREATION_DATE  = 
ORIGINATOR     = 

OBJECT_NAME    = SL-3 R/B
OBJECT_ID      = 1964-053B
CENTER_NAME    = EARTH
REF_FRAME      = TEME
TIME_SYSTEM    = UTC
MEAN_ELEMENT_THEORY = SGP/SGP4

EPOCH          = 2025-10-28T12:55:52.008096
MEAN_MOTION    = 14.61205753
ECCENTRICITY   = .00694715
INCLINATION    = 65.0786
RA_OF_ASC_NODE = 358.6229
ARG_OF_PERICENTER = 335.8207
MEAN_ANOMALY   = 23.9637

EPHEMERIS_TYPE = 0
CLASSIFICATION_TYPE = U
NORAD_CAT_ID   = 877
ELEMENT_SET_NO = 999
REV_AT_EPOCH   = 24748
BSTAR          = .10392034E-3
MEAN_MOTION_DOT = .407E-5
MEAN_MOTION_DDOT = 0

CCSDS_OMM_VERS = 2.0
CREATION_DATE  = 
ORIGINATOR     = 

OBJECT_NAME    = SL-8 R/B
OBJECT_ID      = 1967-045B
CENTER_NAME    = EARTH
REF_FRAME      = TEME
TIME_SYSTEM    = UTC
MEAN_ELEMENT_THEORY = SGP/SGP4

EPOCH          = 2025-10-28T12:44:16.520064
MEAN_MOTION    = 14.45484411
ECCENTRICITY   = .00657071
INCLINATION    = 74.0110
RA_OF_ASC_NODE = 234.8742
ARG_OF_PERICENTER = 273.9909
MEAN_ANOMALY   = 85.3739

EPHEMERIS_TYPE = 0
CLASSIFICATION_TYPE = U
NORAD_CAT_ID   = 2802
ELEMENT_SET_NO = 999
REV_AT_EPOCH   = 6992
BSTAR          = .17167106E-3
MEAN_MOTION_DOT = .592E-5
MEAN_MOTION_DDOT = 0

CCSDS_OMM_VERS = 2.0
CREATION_DATE  = 
ORIGINATOR     = 

OBJECT_NAME    = SL-8 R/B
OBJECT_ID      = 1968-040B
CENTER_NAME    = EARTH
REF_FRAME      = TEME
TIME_SYSTEM    = UTC
MEAN_ELEMENT_THEORY = SGP/SGP4

EPOCH          = 2025-10-28T11:46:15.980736
MEAN_MOTION    = 15.02075118
ECCENTRICITY   = .00233128
INCLINATION    = 74.0319
RA_OF_ASC_NODE = 223.5749
ARG_OF_PERICENTER = 79.2410
MEAN_ANOMALY   = 281.1400

EPHEMERIS_TYPE = 0
CLASSIFICATION_TYPE = U
NORAD_CAT_ID   = 3230
ELEMENT_SET_NO = 999
REV_AT_EPOCH   = 7015
BSTAR          = .35312027E-3
MEAN_MOTION_DOT = .4625E-4
MEAN_MOTION_DDOT = 0

CCSDS_OMM_VERS = 2.0
CREATION_DATE  = 
ORIGINATOR     = 

OBJECT_NAME    = OAO 2
OBJECT_ID      = 1968-110A
CENTER_NAME    = EARTH
REF_FRAME      = TEME
TIME_SYSTEM    = UTC
MEAN_ELEMENT_THEORY = SGP/SGP4

EPOCH          = 2025-10-28T06:04:53.884416
MEAN_MOTION    = 14.47202188
ECCENTRICITY   = .00059925
INCLINATION    = 34.9936
RA_OF_ASC_NODE = 284.5890
ARG_OF_PERICENTER = 219.4339
MEAN_ANOMALY   = 140.5916

EPHEMERIS_TYPE = 0
CLASSIFICATION_TYPE = U
NORAD_CAT_ID   = 3597
ELEMENT_SET_NO = 999
REV_AT_EPOCH   = 99993
BSTAR          = .11866458E-3
MEAN_MOTION_DOT = .421E-5
MEAN_MOTION_DDOT = 0

CCSDS_OMM_VERS = 2.0
CREATION_DATE  = 
ORIGINATOR     = 

OBJECT_NAME    = ISIS 1
OBJECT_ID      = 1969-009A
CENTER_NAME    = EARTH
REF_FRAME      = TEME
TIME_SYSTEM    = UTC
MEAN_ELEMENT_THEORY = SGP/SGP4

EPOCH          = 2025-10-28T13:39:01.090368
MEAN_MOTION    = 11.30329463
ECCENTRICITY   = .17081103
INCLINATION    = 88.4547
RA_OF_ASC_NODE = 169.7317
ARG_OF_PERICENTER = 355.9555
MEAN_ANOMALY   = 2.9024

EPHEMERIS_TYPE = 0
CLASSIFICATION_TYPE = U
NORAD_CAT_ID   = 3669
ELEMENT_SET_NO = 999
REV_AT_EPOCH   = 33360
BSTAR          = .17024698E-3
MEAN_MOTION_DOT = .245E-5
MEAN_MOTION_DDOT = 0

CCSDS_OMM_VERS = 2.0
CREATION_DATE  = 
ORIGINATOR     = 

OBJECT_NAME    = SERT 2
OBJECT_ID      = 1970-009A
CENTER_NAME    = EARTH
REF_FRAME      = TEME
TIME_SYSTEM    = UTC
MEAN_ELEMENT_THEORY = SGP/SGP4

EPOCH          = 2025-10-28T10:56:36.566592
MEAN_MOTION    = 13.58709812
ECCENTRICITY   = .00053005
INCLINATION    = 99.2568
RA_OF_ASC_NODE = 246.8994
ARG_OF_PERICENTER = 134.4832
MEAN_ANOMALY   = 334.1227

EPHEMERIS_TYPE = 0
CLASSIFICATION_TYPE = U
NORAD_CAT_ID   = 4327
ELEMENT_SET_NO = 999
REV_AT_EPOCH   = 76193
BSTAR          = .98748843E-4
MEAN_MOTION_DOT = .31E-6
MEAN_MOTION_DDOT = 0

CCSDS_OMM_VERS = 2.0
CREATION_DATE  = 
ORIGINATOR     = 

OBJECT_NAME    = SL-3 R/B
OBJECT_ID      = 1971-028B
CENTER_NAME    = EARTH
REF_FRAME      = TEME
TIME_SYSTEM    = UTC
MEAN_ELEMENT_THEORY = SGP/SGP4

EPOCH          = 2025-10-28T13:38:46.138848
MEAN_MOTION    = 15.51237170
ECCENTRICITY   = .00237966
INCLINATION    = 81.2408
RA_OF_ASC_NODE = 213.9197
ARG_OF_PERICENTER = 42.8667
MEAN_ANOMALY   = 317.4430

EPHEMERIS_TYPE = 0
CLASSIFICATION_TYPE = U
NORAD_CAT_ID   = 5118
ELEMENT_SET_NO = 999
REV_AT_EPOCH   = 96812
BSTAR          = .58396531E-3
MEAN_MOTION_DOT = .34715E-3
MEAN_MOTION_DDOT = 0

CCSDS_OMM_VERS = 2.0
CREATION_DATE  = 
ORIGINATOR     = 

OBJECT_NAME    = ASTEX 1
OBJECT_ID      = 1971-089A
CENTER_NAME    = EARTH
REF_FRAME      = TEME
TIME_SYSTEM    = UTC
MEAN_ELEMENT_THEORY = SGP/SGP4

EPOCH          = 2025-10-28T12:31:40.718784
MEAN_MOTION    = 14.50556008
ECCENTRICITY   = .00161189
INCLINATION    = 92.7114
RA_OF_ASC_NODE = 108.9985
ARG_OF_PERICENTER = 163.3069
MEAN_ANOMALY   = 196.8671

EPHEMERIS_TYPE = 0
CLASSIFICATION_TYPE = U
NORAD_CAT_ID   = 5560
ELEMENT_SET_NO = 999
REV_AT_EPOCH   = 84314
BSTAR          = .24825995E-3
MEAN_MOTION_DOT = .973E-5
MEAN_MOTION_DDOT = 0

CCSDS_OMM_VERS = 2.0
CREATION_DATE  = 
ORIGINATOR     = 

OBJECT_NAME    = SL-8 R/B
OBJECT_ID      = 1971-119B
CENTER_NAME    = EARTH
REF_FRAME      = TEME
TIME_SYSTEM    = UTC
MEAN_ELEMENT_THEORY = SGP/SGP4

EPOCH          = 2025-10-28T10:46:11.688960
MEAN_MOTION    = 14.34697420
ECCENTRICITY   = .056151
INCLINATION    = 73.8882
RA_OF_ASC_NODE = 62.3055
ARG_OF_PERICENTER = 55.8589
MEAN_ANOMALY   = 309.4511

EPHEMERIS_TYPE = 0
CLASSIFICATION_TYPE = U
NORAD_CAT_ID   = 5730
ELEMENT_SET_NO = 999
REV_AT_EPOCH   = 63650
BSTAR          = .44684229E-3
MEAN_MOTION_DOT = .8367E-4
MEAN_MOTION_DDOT = 0

CCSDS_OMM_VERS = 2.0
CREATION_DATE  = 
ORIGINATOR     = 

OBJECT_NAME    = OAO 3 (COPERNICUS)
OBJECT_ID      = 1972-065A
CENTER_NAME    = EARTH
REF_FRAME      = TEME
TIME_SYSTEM    = UTC
MEAN_ELEMENT_THEORY = SGP/SGP4

EPOCH          = 2025-10-28T10:00:08.376768
MEAN_MOTION    = 14.59846417
ECCENTRICITY   = .00064909
INCLINATION    = 35.0068
RA_OF_ASC_NODE = 330.8414
ARG_OF_PERICENTER = 163.2440
MEAN_ANOMALY   = 339.4783

EPHEMERIS_TYPE = 0
CLASSIFICATION_TYPE = U
NORAD_CAT_ID   = 6153
ELEMENT_SET_NO = 999
REV_AT_EPOCH   = 82685
BSTAR          = .12867221E-3
MEAN_MOTION_DOT = .604E-5
MEAN_MOTION_DDOT = 0

