ATLAS CENTAUR 2         
1 00694U 63047A   25301.46163443  .00004732  00000+0  57373-3 0  9994
2 00694  30.3541 214.2879 0550352 355.4421   4.1310 14.11318948112928
THOR AGENA D R/B        
1 00733U 64002A   25301.50660984  .00000401  00000+0  16046-3 0  9998
2 00733  99.1225 302.6768 0031959 283.8775  75.8853 14.33919756219356
SL-3 R/B                
1 00877U 64053B   25301.53879639  .00000407  00000+0  10392-3 0  9999
2 00877  65.0786 358.6229 0069471 335.8207  23.9637 14.61205753247485
SL-8 R/B                
1 02802U 67045B   25301.53074676  .00000592  00000+0  17167-3 0  9993
2 02802  74.0110 234.8742 0065707 273.9909  85.3739 14.45484411 69928
SL-8 R/B                
1 03230U 68040B   25301.49046274  .00004625  00000+0  35312-3 0  9996
2 03230  74.0319 223.5749 0023312  79.2410 281.1400 15.02075118 70159
OAO 2                   
1 03597U 68110A   25301.25340144  .00000421  00000+0  11866-3 0  9995
2 03597  34.9936 284.5890 0005992 219.4339 140.5916 14.47202188999934
ISIS 1                  
1 03669U 69009A   25301.56876262  .00000245  00000+0  17025-3 0  9999
2 03669  88.4547 169.7317 1708110 355.9555   2.9024 11.30329463333605
SERT 2                  
1 04327U 70009A   25301.45597878  .00000031  00000+0  98749-4 0  9990
2 04327  99.2568 246.8994 0005300 134.4832 334.1227 13.58709812761934
SL-3 R/B                
1 05118U 71028B   25301.56858957  .00034715  00000+0  58397-3 0  9991
2 05118  81.2408 213.9197 0023796  42.8667 317.4430 15.51237170968122
ASTEX 1                 
1 05560U 71089A   25301.52199906  .00000973  00000+0  24826-3 0  9996
2 05560  92.7114 108.9985 0016118 163.3069 196.8671 14.50556008843149
SL-8 R/B                
1 05730U 71119B   25301.44874640  .00008367  00000+0  44684-3 0  9994
2 05730  73.8882  62.3055 0561510  55.8589 309.4511 14.34697420636505
OAO 3 (COPERNICUS)      
1 06153U 72065A   25301.41676362  .00000604  00000+0  12867-3 0  9997
2 06153  35.0068 330.8414 0006490 163.2440 339.4783 14.59846417826856
